[{"OBJECT_NAME":"LEGION 3","OBJECT_ID":"2024-146A","EPOCH":"2026-03-09T21:00:06.623424","MEAN_MOTION":15.16154835,"ECCENTRICITY":0.00135587,"INCLINATION":45.0003,"RA_OF_ASC_NODE":202.9187,"ARG_OF_PERICENTER":321.2712,"MEAN_ANOMALY":38.7194,"EPHEMERIS_TYPE":0,"CLASSIFICATION_TYPE":"U","NORAD_CAT_ID":60452,"ELEMENT_SET_NO":999,"REV_AT_EPOCH":8695,"BSTAR":0.00032920336,"MEAN_MOTION_DOT":6.211e-5,"MEAN_MOTION_DDOT":0},{"OBJECT_NAME":"TWILIGHT-1 OBJECT AC","OBJECT_ID":"2026-004AC","EPOCH":"2026-03-09T12:46:33.802752","MEAN_MOTION":15.17544269,"ECCENTRICITY":0.00027973,"INCLINATION":97.4598,"RA_OF_ASC_NODE":69.0026,"ARG_OF_PERICENTER":3.0882,"MEAN_ANOMALY":357.0369,"EPHEMERIS_TYPE":0,"CLASSIFICATION_TYPE":"U","NORAD_CAT_ID":67389,"ELEMENT_SET_NO":999,"REV_AT_EPOCH":863,"BSTAR":0.00031419474,"MEAN_MOTION_DOT":6.24e-5,"MEAN_MOTION_DDOT":0}]
