LEGION 3                
1 60452U 24146A   26068.87507666  .00006211  00000+0  32920-3 0  9999
2 60452  45.0003 202.9187 0013559 321.2712  38.7194 15.16154835 86950
TWILIGHT-1 OBJECT AC    
1 67389U 26004AC  26068.53233568  .00006240  00000+0  31419-3 0  9994
2 67389  97.4598  69.0026 0002797   3.0882 357.0369 15.17544269  8630
